[{"COMMENT":"GENERATED VIA SPACETRACK.ORG API","ORIGINATOR":"18 SPCS","NORAD_CAT_ID":"43477","OBJECT_NAME":"GRACE-FO 2","OBJECT_TYPE":"PAYLOAD","CLASSIFICATION_TYPE":"U","INTLDES":"18047B","EPOCH":"2023-12-05 22:30:58","EPOCH_MICROSECONDS":"110912","MEAN_MOTION":"15.27521206","ECCENTRICITY":"0.0016785","INCLINATION":"88.9814","RA_OF_ASC_NODE":"325.789","ARG_OF_PERICENTER":"95.4693","MEAN_ANOMALY":"264.8471","EPHEMERIS_TYPE":"0","ELEMENT_SET_NO":"999","REV_AT_EPOCH":"30820","BSTAR":"0.00013762","MEAN_MOTION_DOT":"0.00003747","MEAN_MOTION_DDOT":"0","FILE":"4124334","TLE_LINE0":"0 GRACE-FO 2","TLE_LINE1":"1 43477U 18047B   23339.93817258  .00003747  00000-0  13762-3 0  9991","TLE_LINE2":"2 43477  88.9814 325.7890 0016785  95.4693 264.8471 15.27521206308208","OBJECT_ID":"2018-047B","OBJECT_NUMBER":"43477","SEMIMAJOR_AXIS":"6861.362","PERIOD":"94.270","APOGEE":"494.744","PERIGEE":"471.710","DECAYED":"0"},{"COMMENT":"GENERATED VIA SPACETRACK.ORG API","ORIGINATOR":"18 SPCS","NORAD_CAT_ID":"43477","OBJECT_NAME":"GRACE-FO 2","OBJECT_TYPE":"PAYLOAD","CLASSIFICATION_TYPE":"U","INTLDES":"18047B","EPOCH":"2023-12-06 14:14:19","EPOCH_MICROSECONDS":"890528","MEAN_MOTION":"15.27525347","ECCENTRICITY":"0.0016801","INCLINATION":"88.9814","RA_OF_ASC_NODE":"325.6993","ARG_OF_PERICENTER":"93.4171","MEAN_ANOMALY":"266.9001","EPHEMERIS_TYPE":"0","ELEMENT_SET_NO":"999","REV_AT_EPOCH":"30830","BSTAR":"0.00012772","MEAN_MOTION_DOT":"0.0000348","MEAN_MOTION_DDOT":"0","FILE":"4125534","TLE_LINE0":"0 GRACE-FO 2","TLE_LINE1":"1 43477U 18047B   23340.59328577  .00003480  00000-0  12772-3 0  9990","TLE_LINE2":"2 43477  88.9814 325.6993 0016801  93.4171 266.9001 15.27525347308302","OBJECT_ID":"2018-047B","OBJECT_NUMBER":"43477","SEMIMAJOR_AXIS":"6861.350","PERIOD":"94.270","APOGEE":"494.743","PERIGEE":"471.687","DECAYED":"0"},{"COMMENT":"GENERATED VIA SPACETRACK.ORG API","ORIGINATOR":"18 SPCS","NORAD_CAT_ID":"43477","OBJECT_NAME":"GRACE-FO 2","OBJECT_TYPE":"PAYLOAD","CLASSIFICATION_TYPE":"U","INTLDES":"18047B","EPOCH":"2023-12-06 22:06:00","EPOCH_MICROSECONDS":"725472","MEAN_MOTION":"15.27527846","ECCENTRICITY":"0.0016805","INCLINATION":"88.9813","RA_OF_ASC_NODE":"325.6545","ARG_OF_PERICENTER":"92.3582","MEAN_ANOMALY":"267.9591","EPHEMERIS_TYPE":"0","ELEMENT_SET_NO":"999","REV_AT_EPOCH":"30835","BSTAR":"0.00013083","MEAN_MOTION_DOT":"0.00003564","MEAN_MOTION_DDOT":"0","FILE":"4126527","TLE_LINE0":"0 GRACE-FO 2","TLE_LINE1":"1 43477U 18047B   23340.92084173  .00003564  00000-0  13083-3 0  9997","TLE_LINE2":"2 43477  88.9813 325.6545 0016805  92.3582 267.9591 15.27527846308358","OBJECT_ID":"2018-047B","OBJECT_NUMBER":"43477","SEMIMAJOR_AXIS":"6861.342","PERIOD":"94.270","APOGEE":"494.738","PERIGEE":"471.677","DECAYED":"0"},{"COMMENT":"GENERATED VIA SPACETRACK.ORG API","ORIGINATOR":"18 SPCS","NORAD_CAT_ID":"43477","OBJECT_NAME":"GRACE-FO 2","OBJECT_TYPE":"PAYLOAD","CLASSIFICATION_TYPE":"U","INTLDES":"18047B","EPOCH":"2023-12-07 02:49:01","EPOCH_MICROSECONDS":"200000","MEAN_MOTION":"15.2752918","ECCENTRICITY":"0.0016809","INCLINATION":"88.9813","RA_OF_ASC_NODE":"325.6275","ARG_OF_PERICENTER":"91.7737","MEAN_ANOMALY":"268.5438","EPHEMERIS_TYPE":"0","ELEMENT_SET_NO":"999","REV_AT_EPOCH":"30838","BSTAR":"0.00013159","MEAN_MOTION_DOT":"0.00003585","MEAN_MOTION_DDOT":"0","FILE":"4126014","TLE_LINE0":"0 GRACE-FO 2","TLE_LINE1":"1 43477U 18047B   23341.11737500  .00003585  00000-0  13159-3 0  9995","TLE_LINE2":"2 43477  88.9813 325.6275 0016809  91.7737 268.5438 15.27529180308380","OBJECT_ID":"2018-047B","OBJECT_NUMBER":"43477","SEMIMAJOR_AXIS":"6861.338","PERIOD":"94.270","APOGEE":"494.736","PERIGEE":"471.670","DECAYED":"0"}]